OBJECT_NAME,OBJECT_ID,EPOCH,MEAN_MOTION,ECCENTRICITY,INCLINATION,RA_OF_ASC_NODE,ARG_OF_PERICENTER,MEAN_ANOMALY,EPHEMERIS_TYPE,CLASSIFICATION_TYPE,NORAD_CAT_ID,ELEMENT_SET_NO,REV_AT_EPOCH,BSTAR,MEAN_MOTION_DOT,MEAN_MOTION_DDOT
CHUANGXIN 1-02 (CX-1-02),2008-056B,2026-06-08T06:32:10.783392,14.30151033,.00144422,98.6138,185.6280,161.7073,198.4631,0,U,33434,999,91734,.18639949E-4,.4E-7,0
STARS (KUKAI),2009-002G,2026-06-07T18:52:17.120928,14.95684019,.00080821,98.1539,105.7115,190.7801,169.3247,0,U,33498,999,93707,.40124127E-3,.4405E-4,0
KKS-1 (KISEKI),2009-002H,2026-06-08T03:33:59.030496,14.83101077,.00070852,98.1193,81.4478,329.6951,30.3851,0,U,33499,999,93485,.18198708E-3,.1427E-4,0
NOAA 19,2009-005A,2026-06-08T04:50:33.014400,14.13472969,.00146426,98.9520,230.0699,58.6010,301.6592,0,U,33591,999,89321,.44857045E-4,.4E-6,0
UK-DMC 2,2009-041C,2026-06-08T06:39:31.901184,14.76017402,.00013214,97.8830,294.4623,73.7459,286.3896,0,U,35683,999,90525,.1617399E-3,.1064E-4,0
METEOR-M 1,2009-049A,2026-06-08T03:31:04.531008,14.23154889,.0002108,98.7381,121.6855,6.4793,353.6412,0,U,35865,999,86796,.59666929E-4,.91E-6,0
OCEANSAT-2,2009-051A,2026-06-08T06:19:54.562080,13.99664011,.00146358,98.2330,147.0054,263.3655,96.5846,0,U,35931,999,87808,.9971438E-4,.108E-5,0
SWISSCUBE,2009-051B,2026-06-08T00:00:58.440960,14.62465103,.00054748,98.4042,66.7288,236.3791,123.6888,0,U,35932,999,88781,.23775073E-3,.1155E-4,0
BEESAT-1,2009-051C,2026-06-08T06:41:59.029152,14.61706375,.00039022,98.3972,66.6661,252.4599,107.6175,0,U,35933,999,88788,.18387947E-3,.867E-5,0
ITUPSAT1,2009-051E,2026-06-07T23:43:00.084288,14.60427678,.00060745,98.4056,65.5723,268.4530,91.5974,0,U,35935,999,88739,.1903704E-3,.873E-5,0
DMSP 5D-3 F18 (USA 210),2009-057A,2026-06-08T05:32:25.234368,14.14891748,.00098773,98.9034,140.0196,278.1340,81.8712,0,U,35951,999,85832,.15143834E-3,.248E-5,0
PROBA-2,2009-059B,2026-06-08T02:14:22.463520,14.54858700,.00122643,98.2451,342.5724,312.9339,47.0828,0,U,36037,999,88020,.61253547E-4,.218E-5,0
YAOGAN-7,2009-069A,2026-06-08T05:16:59.435904,14.78000881,.00259628,98.0083,45.1422,69.3638,291.0353,0,U,36110,999,88830,.79454875E-4,.523E-5,0
XIWANG-1 (HOPE-1),2009-072B,2026-06-08T06:37:25.079808,13.16439914,.00067793,100.4028,113.2507,254.2940,105.7425,0,U,36122,999,79183,.25511633E-3,.53E-6,0
RADUGA-1M 2,2010-002A,2026-06-08T04:47:01.806144,0.98969669,.00058498,3.5967,78.9696,267.4553,332.8614,0,U,36358,999,4993,0,-.19E-5,0
COSMOS 2463,2010-017A,2026-06-08T05:13:42.684960,13.71665185,.00368844,82.9608,256.2952,153.1021,268.0219,0,U,36519,999,80670,.42398741E-4,.54E-6,0
CARTOSAT-2B,2010-035A,2026-06-08T06:31:31.491264,14.78650095,.00104349,97.9953,209.8782,214.4613,145.5922,0,U,36795,999,85853,.79683509E-4,.532E-5,0
AISSAT 1,2010-035C,2026-06-07T15:41:47.867136,14.97318190,.00103451,98.0920,57.5614,90.1898,270.0508,0,U,36797,999,86279,.25997828E-3,.2956E-4,0
TISAT 1,2010-035E,2026-06-08T02:25:12.508608,15.31365756,.00001376,98.0701,104.8459,151.1351,208.9896,0,U,36799,999,86631,.73457821E-3,.22207E-3,0
YAOGAN-10,2010-038A,2026-06-08T07:45:42.255072,14.85324180,.00017072,97.8983,182.7989,87.5773,329.7570,0,U,36834,999,85589,.23245016E-3,.1944E-4,0
SHIJIAN-6 04B (SJ-6 04B),2010-051B,2026-06-08T06:43:26.014944,14.99294614,.00092703,97.8685,164.5999,342.1721,17.9175,0,U,37180,999,85434,.92621559E-4,.107E-4,0
FENGYUN 3B,2010-059A,2026-06-08T06:10:21.495936,14.14840525,.00214337,98.9620,205.2337,209.8671,238.7933,0,U,37214,999,80616,.12817294E-3,.203E-5,0
COSMO-SKYMED 4,2010-060A,2026-06-08T06:17:42.293184,14.82161539,.0001416,97.8890,342.9915,83.5225,276.6150,0,U,37216,999,84324,.54264687E-4,.38E-5,0
O/OREOS (USA 219),2010-062C,2026-06-08T05:19:50.428416,14.93705882,.00123772,71.9703,100.6454,82.7455,277.5122,0,U,37224,999,11530,.23355014E-3,.2414E-4,0
ELEKTRO-L 1 (GOMS 2),2011-001A,2026-06-08T06:01:58.899360,1.00155974,.0004268,9.6649,54.5950,30.3483,154.4157,0,U,37344,999,5639,0,-.49E-6,0
RESOURCESAT-2,2011-015A,2026-06-08T05:17:56.599008,14.21604588,.0010139,98.7644,226.7242,284.4978,75.5074,0,U,37387,999,78490,.55138402E-4,.77E-6,0
YOUTHSAT,2011-015B,2026-06-08T03:54:36.881568,14.25626731,.0014796,98.3678,133.6242,13.5709,357.3160,0,U,37388,999,78635,.10791998E-3,.215E-5,0
APRIZESAT 6,2011-044F,2026-06-08T05:12:10.260288,14.76902899,.00443463,98.2371,69.5330,113.9029,16.1249,0,U,37793,999,79582,.11316175E-3,.752E-5,0
JUGNU,2011-058B,2026-06-08T05:51:26.000352,14.13774450,.00185229,19.9622,2.7589,337.7505,350.9134,0,U,37839,999,75775,.83199979E-4,.426E-5,0
SRMSAT,2011-058D,2026-06-08T04:49:16.000032,14.11573773,.00119531,19.9708,113.8594,105.3030,101.4235,0,U,37841,999,75654,.61376452E-4,.378E-5,0
